ORBCOMM FM37            
1 33064U 08031E   25328.35651913  .00002101  00000+0  29911-3 0  9999
2 33064  48.4397 301.8269 0005533 340.8958 135.1811 14.80495402937775
ORBCOMM FM40            
1 33065U 08031F   25328.29266544  .00002884  00000+0  37768-3 0  9992
2 33065  48.4415 283.3841 0006415 357.3758 159.7100 14.82968815937912
VESSELSAT 1             
1 37840U 11058C   25328.09393503  .00000379  00000+0  62061-4 0  9996
2 37840  19.9607 206.2667 0013725 145.3682 214.7618 14.11393142728928
ORBCOMM FM109           
1 40086U 14040A   25328.43711532  .00000808  00000+0  20864-3 0  9991
2 40086  47.0046 339.3044 0002014 328.1159  31.9604 14.58491933604452
ORBCOMM FM107           
1 40087U 14040B   25328.38886171  .00000793  00000+0  20524-3 0  9994
2 40087  47.0063 340.4291 0002026 285.1359  74.9303 14.58569287604525
ORBCOMM FM106           
1 40088U 14040C   25327.51778576  .00001027  00000+0  20085-3 0  9991
2 40088  47.0584 153.8047 0016045  88.0153 272.2575 14.69950219606917
ORBCOMM FM111           
1 40089U 14040D   25328.41950943  .00003527  00000+0  40506-3 0  9999
2 40089  47.0015 337.6490 0029679 241.9226 117.8669 14.87533884614078
ORBCOMM FM104           
1 40090U 14040E   25328.41698110  .00000698  00000+0  19120-3 0  9990
2 40090  47.0066  15.8434 0016903 219.9351 140.0291 14.56960216603985
